INTELSAT 602 (IS-602)   
1 20315U 89087A   09190.25900813  .00000036  00000-0  10000-3 0  9195
2 20315   6.9592  65.8927 0001165  28.4587 104.0315  1.00273418 69946
INTELSAT 603 (IS-603)   
1 20523U 90021A   09191.02258541 -.00000153  00000-0  10000-3 0  4901
2 20523   6.4452  67.4227 0001298  42.7154 166.0931  1.00271729 63707
SBS-6                   
1 20872U 90091A   09185.39233315 -.00000089  00000-0  10000-3 0   791
2 20872   1.8244  80.5292 0007355 325.9619  33.2632  0.98993938 56953
INTELSAT 605 (IS-605)   
1 21653U 91055A   09189.53535175 -.00000244  00000-0  00000-0 0  8011
2 21653   4.4945  73.1313 0001898 212.0183 147.8103  0.99326560 65517
INTELSAT 601 (IS-601)   
1 21765U 91075A   09188.01771354  .00000124  00000-0  10000-3 0  7996
2 21765   4.5322  72.0641 0000417  27.9979 238.9011  1.00272201 64610
INTELSAT 701 (IS-701)   
1 22871U 93066A   09189.62310434  .00000056  00000-0  10000-3 0  3814
2 22871   0.0189  55.5984 0003070  51.8886 223.5109  1.00272340 57410
INTELSAT 702 (IS-702)   
1 23124U 94034A   09188.77065227  .00000001  00000-0  10000-3 0  2420
2 23124   0.0081 342.6174 0002377 122.3005 164.3630  1.00272178 69323
INTELSAT 2 (IS-2)       
1 23175U 94040A   09189.58877303 -.00000026  00000-0  10000-3 0  4654
2 23175   0.5116  83.4350 0003063  10.9322 213.3881  1.00274145 54240
INTELSAT 704 (IS-704)   
1 23461U 95001A   09189.50369574  .00000048  00000-0  10000-3 0  9791
2 23461   0.1814  68.9124 0002061  48.0588 243.0397  0.99178460 53116
INTELSAT 705 (IS-705)   
1 23528U 95013A   09190.30981694 -.00000278  00000-0  10000-3 0  8785
2 23528   0.0598 252.0462 0003979 183.7532 273.1192  1.00272789 52291
INTELSAT 706 (IS-706)   
1 23571U 95023A   09188.73856407  .00000089  00000-0  10000-3 0  9590
2 23571   0.0128  21.7189 0004292  94.1951 130.6266  1.00273354 51774
INTELSAT 3R (IS-3R)     
1 23764U 96002A   09190.93930369 -.00000263  00000-0  10000-3 0  6612
2 23764   0.0319 263.2202 0002569 204.0987 115.8075  1.00270303 49417
HGS-3                   
1 23779U 96006A   09188.62191942  .00000156  00000-0  10000-3 0  2268
2 23779   0.0316 180.5436 0003219 293.1894  73.8873  1.00274990 49133
INTELSAT 707 (IS-707)   
1 23816U 96015A   09190.94518367 -.00000279  00000-0  10000-3 0  8704
2 23816   0.0082  32.0925 0003295  83.6145  99.5326  1.00269433 48801
GALAXY 9 (G-9)          
1 23877U 96033A   09190.36367223 -.00000221  00000-0  10000-3 0  1104
2 23877   0.8432  80.3564 0001805  19.0403 237.9579  1.00272841 48080
INTELSAT 709 (IS-709)   
1 23915U 96035A   09188.72934271 -.00000183  00000-0  10000-3 0  9698
2 23915   0.0147  43.0343 0003317  66.0670 164.4150  1.00271606 47869
INTELSAT 801 (IS-801)   
1 24742U 97009A   09189.94131797 -.00000220  00000-0  10000-3 0  6381
2 24742   0.7890  82.7733 0004148  11.3305 140.2826  1.00271982 45298
GALAXY 25 (G-25)        
1 24812U 97026A   09189.41825185 -.00000159  00000-0  10000-3 0  9329
2 24812   0.0195  74.9972 0003092  27.2039 241.7599  1.00271654 44415
INTELSAT 802 (IS-802)   
1 24846U 97031A   09189.05297295  .00000159  00000-0  00000+0 0  8498
2 24846   0.0149   1.7184 0002244 100.4665 235.9249  1.00274050 44129
INTELSAT 5 (IS-5)       
1 24916U 97046A   09190.30418715 -.00000026  00000-0  10000-3 0  8011
2 24916   0.0139  51.9597 0002764  37.3895 116.4984  1.00272246 43595
INTELSAT 805 (IS-805)   
1 25371U 98037A   09188.37152319 -.00000283  00000-0  10000-3 0  3781
2 25371   0.0114 265.7434 0002966 197.6398 260.3064  1.00269695 40512
INTELSAT 7 (IS-7)       
1 25473U 98052A   09188.73812961 -.00000023  00000-0  10000-3 0  8122
2 25473   0.0111  44.8269 0003432  59.1337 156.2192  1.00272317 39594
INTELSAT 8 (IS-8)       
1 25522U 98065A   09190.37841035 -.00000052  00000-0  10000-3 0  6588
2 25522   0.0320 272.8624 0003129 187.0653 129.7431  1.00272096 39184
GALAXY 26 (G-26)        
1 25626U 99005A   09188.74812951  .00000113  00000-0  10000-3 0  5093
2 25626   0.0122  25.1560 0003154  90.8068 129.9326  1.00273159 38080
INSAT-2E (APR-1)        
1 25666U 99016A   09188.66023199 -.00000162  00000-0  10000-3 0  4755
2 25666   0.1103  78.0308 0004052  19.4144 148.9593  1.00271002 37701
GALAXY 27 (G-27)        
1 25922U 99052A   09190.52241728  .00000063  00000-0  10000-3 0  5163
2 25922   0.0155  45.8932 0002481  50.9460 249.8063  1.00273723 35840
GALAXY 11 (G-11)        
1 26038U 99071A   09188.78421948  .00000158  00000-0  00000+0 0  7355
2 26038   0.0271 101.0208 0000566 133.9700   6.0003  1.00271811 35056
GALAXY 4R (G-4R)        
1 26298U 00020A   09185.02325965 -.00000301  00000-0  10000-3 0  7070
2 26298   2.7285  76.3431 0001702 346.2513  13.2903  0.99843695 33840
INTELSAT 9 (IS-9)       
1 26451U 00043A   09190.21833852 -.00000281  00000-0  10000-3 0  2546
2 26451   0.0382  56.4425 0001292  26.0072 225.4053  1.00269564 32807
INTELSAT 12 (IS-12)     
1 26590U 00068A   09188.73754071  .00000139  00000-0  10000-3 0  3043
2 26590   0.0204  62.2332 0002760  35.7776 138.3234  1.00272430 31858
INTELSAT 1R (IS-1R)     
1 26608U 00072A   09185.91169197 -.00000272  00000-0  10000-3 0   679
2 26608   0.0471 124.6088 0001112 298.7988 142.7778  1.00270215 31672
INTELSAT 10 (IS-10)     
1 26766U 01019A   09188.73812822 -.00000022  00000-0  10000-3 0  4081
2 26766   0.0177 308.9675 0002987 136.4107 174.6504  1.00272843 29870
INTELSAT 901 (IS-901)   
1 26824U 01024A   09189.92257943 -.00000137  00000-0  10000-3 0  4404
2 26824   0.0247  46.2309 0003379  51.7029 143.1817  1.00271648 29631
INTELSAT 902 (IS-902)   
1 26900U 01039A   09188.74594296  .00000035  00000-0  10000-3 0  4247
2 26900   0.0158  55.5579 0003023  44.1642 156.6449  1.00273519 28797
INTELSAT 904 (IS-904)   
1 27380U 02007A   09188.70544302  .00000052  00000-0  10000-3 0  4367
2 27380   0.0086 352.9276 0003016 108.4555 138.3546  1.00272566 27040
INTELSAT 903 (IS-903)   
1 27403U 02016A   09188.90850683 -.00000235  00000-0  10000-3 0  2325
2 27403   0.0061   3.2132 0002669 106.7376 108.5942  1.00270478 26702
INTELSAT 905 (IS-905)   
1 27438U 02027A   09186.06078906 -.00000182  00000-0  00000+0 0   795
2 27438   0.0414 264.1844 0003357 199.6394 176.7404  1.00270330 25993
GALAXY 3C (G-3C)        
1 27445U 02030A   09190.24742968 -.00000146  00000-0  10000-3 0   478
2 27445   0.0201 152.4884 0000431 336.0018 152.8302  1.00270455 25910
INTELSAT 906 (IS-906)   
1 27513U 02041A   09188.71603632  .00000017  00000-0  10000-3 0  2073
2 27513   0.0176  39.0523 0003080  73.6050 135.0594  1.00272046 25071
INTELSAT 907 (IS-907)   
1 27683U 03007A   09190.03944343 -.00000198  00000-0  10000-3 0  8009
2 27683   0.0135  10.6506 0003062 101.0391 162.1053  1.00270682 23448
GALAXY 12 (G-12)        
1 27715U 03013B   09189.47527156  .00000028  00000-0  10000-3 0  1416
2 27715   0.0198   9.3593 0002646  92.0506 233.3301  1.00273875 22957
GALAXY 23 (G-23)        
1 27854U 03034A   09189.60966250  .00000000  00000-0  10000-3 0    59
2 27854   0.0156  13.3447 0002861  98.6169 273.2208  1.00272095 21731
GALAXY 13 (HORIZONS-1)  
1 27954U 03044A   09190.62061302  .00000000  00000-0  10000-3 0  9137
2 27954   0.0364  15.5708 0002281  58.2697 310.2919  1.00272845 21207
INTELSAT 10-02          
1 28358U 04022A   09188.10270785 -.00000008  00000-0  10000-3 0  7193
2 28358   0.0458 128.6571 0000918 320.0211 232.5016  1.00272550 18563
GALAXY 28 (G-28)        
1 28702U 05022A   09189.28978538 -.00000182  00000-0  10000-3 0  6718
2 28702   0.0047 359.0898 0001607  62.8088 239.7675  1.00270882 14844
GALAXY 14 (G-14)        
1 28790U 05030A   09190.43337698  .00000041  00000-0  10000-3 0  7588
2 28790   0.0194  20.0779 0002659  71.1795 227.2578  1.00273738 14277
GALAXY 15 (G-15)        
1 28884U 05041A   09189.63748973  .00000000  00000-0  10000-3 0  6580
2 28884   0.0083 353.5056 0002983 115.8025 273.9555  1.00274007 13702
GALAXY 16 (G-16)        
1 29236U 06023A   09191.24788181 -.00000121  00000-0  10000-3 0  5469
2 29236   0.0414 184.4915 0003449 280.0986 173.9356  1.00271568 11239
GALAXY 17 (G-17)        
1 31307U 07016B   09188.43980535 -.00000172  00000-0  10000-3 0  3866
2 31307   0.0165 348.9174 0003778 143.5019 220.4173  1.00271322  8018
INTELSAT 11 (IS-11)     
1 32253U 07044B   09189.93220001 -.00000265  00000-0  10000-3 0  2489
2 32253   0.0303  47.1023 0002276   5.0312 167.3508  1.00270418  6489
HORIZONS 2              
1 32388U 07063B   09190.40886612 -.00000248  00000-0  10000-3 0  2390
2 32388   0.0373 262.2614 0002622 208.2881 250.0547  1.00273174  5848
GALAXY 18 (G-18)        
1 32951U 08024A   09189.47527220  .00000028  00000-0  10000-3 0  1839
2 32951   0.0021   7.6862 0003381  95.6025 231.3426  1.00272818  4167
